{
	"sentAt": "2025-08-05T10:00:00",
	"attachments": [
		{
			"attachmentId": "5a70a27f-997e-431e-9155-cc50d01e80c5",
			"fileName": "attachment.pdf",
			"contentType": "application/pdf"
		},
		{
			"attachmentId": "attachment4",
			"fileName": "image.png",
			"contentType": "image/png"
		}
	],
	"recipients": [
		{
			"name": "John Doe",
			"mobileNumber": "+46701740605",
			"streetAddress": "Testgatan 12",
			"zipCode": "12345",
			"city": "Testsvall",
			"messageType": "SNAIL_MAIL"
		},
		{
			"name": "John Doe",
			"mobileNumber": "+46701740605",
			"streetAddress": "Testgatan 13",
			"zipCode": "12345",
			"city": "Testsvall",
			"messageType": "SNAIL_MAIL"
		},
		{
			"name": "John Doe",
			"mobileNumber": "+46701740605",
			"streetAddress": "Testgatan 14",
			"zipCode": "12345",
			"city": "Testsvall",
			"messageType": "SNAIL_MAIL"
		},
		{
			"name": "John Doe",
			"mobileNumber": "+46701740605",
			"streetAddress": "Testgatan 15",
			"zipCode": "12345",
			"city": "Testsvall",
			"messageType": "SNAIL_MAIL"
		},
		{
			"name": "John Doe",
			"mobileNumber": "+46701740605",
			"streetAddress": "Testgatan 16",
			"zipCode": "12345",
			"city": "Testsvall",
			"messageType": "SNAIL_MAIL"
		},
		{
			"name": "John Doe",
			"mobileNumber": "+46701740605",
			"streetAddress": "Testgatan 17",
			"zipCode": "12345",
			"city": "Testsvall",
			"messageType": "SNAIL_MAIL"
		},
		{
			"name": "John Doe",
			"mobileNumber": "+46701740605",
			"streetAddress": "Testgatan 18",
			"zipCode": "12345",
			"city": "Testsvall",
			"messageType": "SNAIL_MAIL"
		},
		{
			"name": "John Doe",
			"streetAddress": "Testgatan 121",
			"zipCode": "12345",
			"city": "Testsvall",
			"messageType": "SNAIL_MAIL"
		},
		{
			"name": "John Doe",
			"mobileNumber": "+46701740605",
			"streetAddress": "Testgatan 19",
			"zipCode": "12345",
			"city": "Testsvall",
			"messageType": "SNAIL_MAIL"
		},
		{
			"name": "Alex Doe",
			"mobileNumber": "+46701740605",
			"streetAddress": "Testgatan 122",
			"zipCode": "12345",
			"city": "Testsvall",
			"messageType": "SNAIL_MAIL"
		},
		{
			"name": "Alex Doe",
			"mobileNumber": "+46701740605",
			"streetAddress": "Testgatan 123",
			"zipCode": "12345",
			"city": "Testsvall",
			"messageType": "SNAIL_MAIL"
		},
		{
			"name": "Alex Doe",
			"mobileNumber": "+46701740605",
			"streetAddress": "Testgatan 124",
			"zipCode": "12345",
			"city": "Testsvall",
			"messageType": "SNAIL_MAIL"
		},
		{
			"name": "Alex Doe",
			"streetAddress": "Testgatan 12",
			"zipCode": "12345",
			"city": "Testsvall",
			"messageType": "SNAIL_MAIL"
		},
		{
			"name": "Alex Doe",
			"mobileNumber": "+46701740605",
			"streetAddress": "Testgatan 125",
			"zipCode": "12345",
			"city": "Testsvall",
			"messageType": "SNAIL_MAIL"
		},
		{
			"name": "Alex Doe",
			"mobileNumber": "+46701740605",
			"streetAddress": "Testgatan 126",
			"zipCode": "12345",
			"city": "Testsvall",
			"messageType": "SNAIL_MAIL"
		},
		{
			"name": "Alex Doe",
			"mobileNumber": "+46701740605",
			"streetAddress": "Testgatan 127",
			"zipCode": "12345",
			"city": "Testsvall",
			"messageType": "SNAIL_MAIL"
		},
		{
			"name": "Jane Doe",
			"mobileNumber": "+46701740605",
			"streetAddress": "Testgatan 128",
			"zipCode": "12345",
			"city": "Testsvall",
			"messageType": "SNAIL_MAIL"
		},
		{
			"name": "Jane Doe",
			"streetAddress": "Testgatan 129",
			"zipCode": "12345",
			"city": "Testsvall",
			"messageType": "SNAIL_MAIL"
		},
		{
			"name": "Jane Doe",
			"mobileNumber": "+46701740605",
			"streetAddress": "Testgatan 120",
			"zipCode": "12345",
			"city": "Testsvall",
			"messageType": "SNAIL_MAIL"
		},
		{
			"name": "Jane Doe",
			"mobileNumber": "+46701740605",
			"streetAddress": "Testgatan 112",
			"zipCode": "12345",
			"city": "Testsvall",
			"messageType": "SNAIL_MAIL"
		},
		{
			"name": "Jane Doe",
			"mobileNumber": "+46701740605",
			"streetAddress": "Testgatan 1122",
			"zipCode": "12345",
			"city": "Testsvall",
			"messageType": "SNAIL_MAIL"
		},
		{
			"name": "Jane Doe",
			"mobileNumber": "+46701740605",
			"streetAddress": "Testgatan 122",
			"zipCode": "12345",
			"city": "Testsvall",
			"messageType": "SNAIL_MAIL"
		},
		{
			"name": "Jane Doe",
			"mobileNumber": "+46701740605",
			"streetAddress": "Testgatan 132",
			"zipCode": "12345",
			"city": "Testsvall",
			"messageType": "SNAIL_MAIL"
		},
		{
			"name": "Jane Doe",
			"mobileNumber": "+46701740605",
			"streetAddress": "Testgatan 131",
			"zipCode": "12345",
			"city": "Testsvall",
			"messageType": "SNAIL_MAIL"
		},
		{
			"name": "Jane Doe",
			"streetAddress": "Testgatan 182",
			"zipCode": "12345",
			"city": "Testsvall",
			"messageType": "SNAIL_MAIL"
		},
		{
			"name": "John Wick",
			"messageType": "DIGITAL_MAIL"
		},
		{
			"name": "John Wick",
			"messageType": "DIGITAL_MAIL"
		},
		{
			"name": "John Wick",
			"messageType": "DIGITAL_MAIL"
		},
		{
			"name": "John Wick",
			"messageType": "DIGITAL_MAIL"
		},
		{
			"name": "John Wick",
			"messageType": "DIGITAL_MAIL"
		},
		{
			"name": "John Wick",
			"mobileNumber": "+46701740605",
			"messageType": "SMS"
		},
		{
			"name": "John Wick",
			"mobileNumber": "+46701740605",
			"messageType": "SMS"
		},
		{
			"name": "John Wick",
			"mobileNumber": "+46701740605",
			"messageType": "SMS"
		},
		{
			"name": "John Wick",
			"mobileNumber": "+46701740605",
			"messageType": "SMS"
		},
		{
			"name": "John Wick",
			"mobileNumber": "+46701740605",
			"messageType": "SMS"
		}
	]
}
